TIANMU-1 13             
1 58647U 23205C   24213.60714644  .00007400  00000+0  39193-3 0  9994
2 58647  97.4040 237.4958 0008698 215.8511 144.2138 15.15666400 33225
TIANMU-1 14             
1 58648U 23205D   24213.59097414  .00006727  00000+0  35654-3 0  9991
2 58648  97.3965 237.3015 0009261 220.1479 139.9071 15.15671396 33220
TIANMU-1 19             
1 58660U 23208A   24213.53074554  .00009445  00000+0  49739-3 0  9991
2 58660  97.4137 324.8404 0008799 203.6820 156.4009 15.15790186 32886
TIANMU-1 20             
1 58661U 23208B   24213.57719958  .00008730  00000+0  44990-3 0  9990
2 58661  97.4067 324.8701 0009301 213.7495 146.3147 15.16574198 32907
TIANMU-1 21             
1 58662U 23208C   24213.54335805  .00009475  00000+0  47502-3 0  9992
2 58662  97.4103 325.1790 0009016 213.9291 146.1367 15.17523141 32916
TIANMU-1 22             
1 58663U 23208D   24213.54815196  .00008002  00000+0  42291-3 0  9994
2 58663  97.4121 324.9226 0004453 220.4881 139.6021 15.15737138 32898
TIANMU-1 15             
1 58700U 24004A   24213.58994060  .00008011  00000+0  42416-3 0  9992
2 58700  97.4631  33.8920 0008594 256.4997 103.5278 15.15653264 31496
TIANMU-1 16             
1 58701U 24004B   24213.57178437  .00007558  00000+0  39999-3 0  9991
2 58701  97.4561  33.7140 0008449 263.0019  97.0253 15.15691914 31494
TIANMU-1 17             
1 58702U 24004C   24213.55745779  .00007060  00000+0  37432-3 0  9997
2 58702  97.4603  33.8527 0006313 255.8081 104.2451 15.15664865 31483
TIANMU-1 18             
1 58703U 24004D   24213.60600813  .00006889  00000+0  36521-3 0  9999
2 58703  97.4617  33.9829 0005726 243.1012 116.9636 15.15681510 31498
INSAT-3DS               
1 58990U 24033A   24213.53667229 -.00000164  00000+0  00000+0 0  9995
2 58990   0.0699 263.7926 0001615 233.1176  88.0149  1.00271680 40197
METEOR-M2 4             
1 59051U 24039A   24213.59695512  .00000090  00000+0  60021-4 0  9993
2 59051  98.6004 174.4037 0007178   6.1098 354.0166 14.22243527 21800
GOES 19                 
1 60133U 24119A   24213.57409201 -.00000190  00000+0  00000+0 0  9999
2 60133   0.0816 249.8299 0003171 198.5910 338.3689  1.00273719    86
